STARLINK-32561          
1 62026U 24213U   26068.54776594  .00028267  00000+0  96317-3 0  9990
2 62026  53.1590 168.7454 0000924  85.2752 274.8354 15.30190093 73138
TEVEL2-6                
1 63215U 25052F   26068.64958975  .00021046  00000+0  70909-3 0  9996
2 63215  97.4016 325.0381 0004769  95.6604 264.5181 15.30760889 54861
